{
  "type": "FeatureCollection",
  "features": [
    {
      "type": "Feature",
      "properties": {
        "norad_id": 38006,
        "name": "COSMOS 2251 DEB",
        "group": "cosmos-2251-debris",
        "lat": -68.77237927546739,
        "lon": -16.129065309261996,
        "alt_km": 712.181060132566,
        "timestamp": "2025-12-15T22:44:29.328414+00:00",
        "meta_object_name": "COSMOS 2251 DEB",
        "meta_object_id": "1993-036BRH",
        "meta_epoch": "2025-12-10T03:36:37.956384",
        "meta_mean_motion": 14.45867865,
        "meta_eccentricity": 0.00758537,
        "meta_inclination": 73.8744,
        "meta_ra_of_asc_node": 42.933,
        "meta_arg_of_pericenter": 348.3853,
        "meta_mean_anomaly": 11.555,
        "meta_ephemeris_type": 0,
        "meta_classification_type": "U",
        "meta_norad_cat_id": 38006,
        "meta_element_set_no": 999,
        "meta_rev_at_epoch": 62922,
        "meta_bstar": 0.0047338847,
        "meta_mean_motion_dot": 0.00017443,
        "meta_mean_motion_ddot": 0,
        "tle_line1": "1 38006U 93036BRH 25344.15043931  .00017443  00000+0  47339-2 0  9998",
        "tle_line2": "2 38006  73.8744  42.9330 0075853 348.3853  11.5550 14.45867865629227"
      },
      "geometry": {
        "type": "Point",
        "coordinates": [
          -16.129065309261996,
          -68.77237927546739
        ]
      }
    },
    {
      "type": "Feature",
      "properties": {
        "norad_id": 38054,
        "name": "COSMOS 2251 DEB",
        "group": "cosmos-2251-debris",
        "lat": 26.357534421466156,
        "lon": 72.34511636447372,
        "alt_km": 996.1325192161021,
        "timestamp": "2025-12-15T22:44:29.328425+00:00",
        "meta_object_name": "COSMOS 2251 DEB",
        "meta_object_id": "1993-036BRL",
        "meta_epoch": "2025-12-15T05:06:45.095616",
        "meta_mean_motion": 13.62359843,
        "meta_eccentricity": 0.03586598,
        "meta_inclination": 73.9547,
        "meta_ra_of_asc_node": 261.7439,
        "meta_arg_of_pericenter": 239.3839,
        "meta_mean_anomaly": 275.8901,
        "meta_ephemeris_type": 0,
        "meta_classification_type": "U",
        "meta_norad_cat_id": 38054,
        "meta_element_set_no": 999,
        "meta_rev_at_epoch": 67213,
        "meta_bstar": 0.0016656272,
        "meta_mean_motion_dot": 1.964e-05,
        "meta_mean_motion_ddot": 0,
        "tle_line1": "1 38054U 93036BRL 25349.21302194  .00001964  00000+0  16656-2 0  9991",
        "tle_line2": "2 38054  73.9547 261.7439 0358659 239.3839 275.8901 13.62359843672137"
      },
      "geometry": {
        "type": "Point",
        "coordinates": [
          72.34511636447372,
          26.357534421466156
        ]
      }
    },
    {
      "type": "Feature",
      "properties": {
        "norad_id": 38055,
        "name": "COSMOS 2251 DEB",
        "group": "cosmos-2251-debris",
        "lat": -27.570193922161092,
        "lon": -168.1526722247762,
        "alt_km": 598.12026901829,
        "timestamp": "2025-12-15T22:44:29.328435+00:00",
        "meta_object_name": "COSMOS 2251 DEB",
        "meta_object_id": "1993-036BRM",
        "meta_epoch": "2025-12-14T22:46:42.153600",
        "meta_mean_motion": 14.77004867,
        "meta_eccentricity": 0.00658572,
        "meta_inclination": 74.0091,
        "meta_ra_of_asc_node": 202.4184,
        "meta_arg_of_pericenter": 329.4708,
        "meta_mean_anomaly": 94.9571,
        "meta_ephemeris_type": 0,
        "meta_classification_type": "U",
        "meta_norad_cat_id": 38055,
        "meta_element_set_no": 999,
        "meta_rev_at_epoch": 60715,
        "meta_bstar": 0.00052350473,
        "meta_mean_motion_dot": 3.79e-05,
        "meta_mean_motion_ddot": 0,
        "tle_line1": "1 38055U 93036BRM 25348.94909900  .00003790  00000+0  52350-3 0  9990",
        "tle_line2": "2 38055  74.0091 202.4184 0065857 329.4708  94.9571 14.77004867607157"
      },
      "geometry": {
        "type": "Point",
        "coordinates": [
          -168.1526722247762,
          -27.570193922161092
        ]
      }
    },
    {
      "type": "Feature",
      "properties": {
        "norad_id": 38060,
        "name": "COSMOS 2251 DEB",
        "group": "cosmos-2251-debris",
        "lat": 42.564872152036735,
        "lon": -55.61512013992313,
        "alt_km": 636.4293555040558,
        "timestamp": "2025-12-15T22:44:29.328445+00:00",
        "meta_object_name": "COSMOS 2251 DEB",
        "meta_object_id": "1993-036BRS",
        "meta_epoch": "2025-12-15T02:51:29.989440",
        "meta_mean_motion": 14.63872594,
        "meta_eccentricity": 0.00581987,
        "meta_inclination": 74.0428,
        "meta_ra_of_asc_node": 290.739,
        "meta_arg_of_pericenter": 36.1637,
        "meta_mean_anomaly": 324.3443,
        "meta_ephemeris_type": 0,
        "meta_classification_type": "U",
        "meta_norad_cat_id": 38060,
        "meta_element_set_no": 999,
        "meta_rev_at_epoch": 71999,
        "meta_bstar": 0.00044181022,
        "meta_mean_motion_dot": 2.335e-05,
        "meta_mean_motion_ddot": 0,
        "tle_line1": "1 38060U 93036BRS 25349.11909710  .00002335  00000+0  44181-3 0  9992",
        "tle_line2": "2 38060  74.0428 290.7390 0058198  36.1637 324.3443 14.63872594719998"
      },
      "geometry": {
        "type": "Point",
        "coordinates": [
          -55.61512013992313,
          42.564872152036735
        ]
      }
    },
    {
      "type": "Feature",
      "properties": {
        "norad_id": 38062,
        "name": "COSMOS 2251 DEB",
        "group": "cosmos-2251-debris",
        "lat": 11.033922452210938,
        "lon": -72.80188705376041,
        "alt_km": 576.6747206188993,
        "timestamp": "2025-12-15T22:44:29.328455+00:00",
        "meta_object_name": "COSMOS 2251 DEB",
        "meta_object_id": "1993-036BRU",
        "meta_epoch": "2025-12-12T07:01:37.512192",
        "meta_mean_motion": 14.94806818,
        "meta_eccentricity": 0.00123829,
        "meta_inclination": 74.0077,
        "meta_ra_of_asc_node": 291.3712,
        "meta_arg_of_pericenter": 60.6656,
        "meta_mean_anomaly": 90.0551,
        "meta_ephemeris_type": 0,
        "meta_classification_type": "U",
        "meta_norad_cat_id": 38062,
        "meta_element_set_no": 999,
        "meta_rev_at_epoch": 63023,
        "meta_bstar": 0.0035861639,
        "meta_mean_motion_dot": 0.00039272,
        "meta_mean_motion_ddot": 0,
        "tle_line1": "1 38062U 93036BRU 25346.29279528  .00039272  00000+0  35862-2 0  9992",
        "tle_line2": "2 38062  74.0077 291.3712 0012382  60.6656  90.0551 14.94806818630239"
      },
      "geometry": {
        "type": "Point",
        "coordinates": [
          -72.80188705376041,
          11.033922452210938
        ]
      }
    },
    {
      "type": "Feature",
      "properties": {
        "norad_id": 38064,
        "name": "COSMOS 2251 DEB",
        "group": "cosmos-2251-debris",
        "lat": -23.169227003666695,
        "lon": -54.90984188472361,
        "alt_km": 681.9531530103886,
        "timestamp": "2025-12-15T22:44:29.328465+00:00",
        "meta_object_name": "COSMOS 2251 DEB",
        "meta_object_id": "1993-036BRW",
        "meta_epoch": "2025-12-15T02:01:12.621504",
        "meta_mean_motion": 14.56322901,
        "meta_eccentricity": 0.00473947,
        "meta_inclination": 74.0219,
        "meta_ra_of_asc_node": 119.6854,
        "meta_arg_of_pericenter": 238.9188,
        "meta_mean_anomaly": 120.7321,
        "meta_ephemeris_type": 0,
        "meta_classification_type": "U",
        "meta_norad_cat_id": 38064,
        "meta_element_set_no": 999,
        "meta_rev_at_epoch": 71899,
        "meta_bstar": 0.00072771088,
        "meta_mean_motion_dot": 3.245e-05,
        "meta_mean_motion_ddot": 0,
        "tle_line1": "1 38064U 93036BRW 25349.08417386  .00003245  00000+0  72771-3 0  9992",
        "tle_line2": "2 38064  74.0219 119.6854 0047394 238.9188 120.7321 14.56322901718999"
      },
      "geometry": {
        "type": "Point",
        "coordinates": [
          -54.90984188472361,
          -23.169227003666695
        ]
      }
    },
    {
      "type": "Feature",
      "properties": {
        "norad_id": 38067,
        "name": "COSMOS 2251 DEB",
        "group": "cosmos-2251-debris",
        "lat": -56.50507512347404,
        "lon": 114.0286166821839,
        "alt_km": 745.1405688355999,
        "timestamp": "2025-12-15T22:44:29.328475+00:00",
        "meta_object_name": "COSMOS 2251 DEB",
        "meta_object_id": "1993-036BRZ",
        "meta_epoch": "2025-12-14T13:35:01.091904",
        "meta_mean_motion": 14.61135602,
        "meta_eccentricity": 0.00694851,
        "meta_inclination": 74.0173,
        "meta_ra_of_asc_node": 271.0073,
        "meta_arg_of_pericenter": 58.167,
        "meta_mean_anomaly": 117.7661,
        "meta_ephemeris_type": 0,
        "meta_classification_type": "U",
        "meta_norad_cat_id": 38067,
        "meta_element_set_no": 999,
        "meta_rev_at_epoch": 62582,
        "meta_bstar": 0.00041702153,
        "meta_mean_motion_dot": 2.092e-05,
        "meta_mean_motion_ddot": 0,
        "tle_line1": "1 38067U 93036BRZ 25348.56598486  .00002092  00000+0  41702-3 0  9997",
        "tle_line2": "2 38067  74.0173 271.0073 0069485  58.1670 117.7661 14.61135602625828"
      },
      "geometry": {
        "type": "Point",
        "coordinates": [
          114.0286166821839,
          -56.50507512347404
        ]
      }
    }
  ]
}